KUIPER-00095            
1 65134U 25171C   26004.48688075  .00008882  00000+0  80350-3 0  9997
2 65134  51.8927  72.2704 0004185 275.7420  84.3072 14.96071523 23524
KUIPER-00096            
1 65135U 25171D   26004.59154698  .00066229  00000+0  85891-2 0  9992
2 65135  51.9005  81.5276 0007043 306.3198  53.7114 14.80125743 23400
KUIPER-00097            
1 65136U 25171E   26004.52152392  .00058458  00000+0  76400-2 0  9996
2 65136  51.9032  84.4569 0007397 307.6523  52.3768 14.79866644 23349
KUIPER-00098            
1 65137U 25171F   26004.51849893  .00002111  00000+0  30606-3 0  9999
2 65137  51.9013  86.8514 0006484 286.7519  73.2732 14.79913210 22662
KUIPER-00099            
1 65138U 25171G   26004.69810491  .00004461  00000+0  61340-3 0  9990
2 65138  51.9039  76.0257 0000703  65.5942 294.5094 14.79959287 23481
KUIPER-00100            
1 65139U 25171H   26004.83335648  .00004856  00000+0  70260-3 0  9992
2 65139  51.9011  72.8722 0000463  73.7314 116.4014 14.77603996  5564
KUIPER-00102            
1 65140U 25171J   26004.39424915  .00006515  00000+0  88191-3 0  9997
2 65140  51.8988  77.4010 0000564  77.2985 282.8041 14.79976860 23433
KUIPER-00103            
1 65141U 25171K   26004.54424109 -.00005937  00000+0 -75053-3 0  9992
2 65141  51.9001  94.2274 0005392 276.7955  83.2393 14.79905976 23216
