<?xml version="1.0" encoding="UTF-8"?>
<ndm xmlns:xsi="http://www.w3.org/2001/XMLSchema-instance" xsi:noNamespaceSchemaLocation="https://sanaregistry.org/r/ndmxml_unqualified/ndmxml-2.0.0-master-2.0.xsd">
<omm id="CCSDS_OMM_VERS" version="2.0">
<header><CREATION_DATE/><ORIGINATOR/></header><body><segment><metadata><OBJECT_NAME>KUIPER-00095</OBJECT_NAME><OBJECT_ID>2025-171C</OBJECT_ID><CENTER_NAME>EARTH</CENTER_NAME><REF_FRAME>TEME</REF_FRAME><TIME_SYSTEM>UTC</TIME_SYSTEM><MEAN_ELEMENT_THEORY>SGP4</MEAN_ELEMENT_THEORY></metadata><data><meanElements><EPOCH>2026-01-04T11:41:06.496800</EPOCH><MEAN_MOTION>14.96071523</MEAN_MOTION><ECCENTRICITY>.00041856</ECCENTRICITY><INCLINATION>51.8927</INCLINATION><RA_OF_ASC_NODE>72.2704</RA_OF_ASC_NODE><ARG_OF_PERICENTER>275.7420</ARG_OF_PERICENTER><MEAN_ANOMALY>84.3072</MEAN_ANOMALY></meanElements><tleParameters><EPHEMERIS_TYPE>0</EPHEMERIS_TYPE><CLASSIFICATION_TYPE>U</CLASSIFICATION_TYPE><NORAD_CAT_ID>65134</NORAD_CAT_ID><ELEMENT_SET_NO>999</ELEMENT_SET_NO><REV_AT_EPOCH>2352</REV_AT_EPOCH><BSTAR>.80349946E-3</BSTAR><MEAN_MOTION_DOT>.8882E-4</MEAN_MOTION_DOT><MEAN_MOTION_DDOT>0</MEAN_MOTION_DDOT></tleParameters></data></segment></body></omm>
<omm id="CCSDS_OMM_VERS" version="2.0">
<header><CREATION_DATE/><ORIGINATOR/></header><body><segment><metadata><OBJECT_NAME>KUIPER-00096</OBJECT_NAME><OBJECT_ID>2025-171D</OBJECT_ID><CENTER_NAME>EARTH</CENTER_NAME><REF_FRAME>TEME</REF_FRAME><TIME_SYSTEM>UTC</TIME_SYSTEM><MEAN_ELEMENT_THEORY>SGP4</MEAN_ELEMENT_THEORY></metadata><data><meanElements><EPOCH>2026-01-04T14:11:49.659072</EPOCH><MEAN_MOTION>14.80125743</MEAN_MOTION><ECCENTRICITY>.0007043</ECCENTRICITY><INCLINATION>51.9005</INCLINATION><RA_OF_ASC_NODE>81.5276</RA_OF_ASC_NODE><ARG_OF_PERICENTER>306.3198</ARG_OF_PERICENTER><MEAN_ANOMALY>53.7114</MEAN_ANOMALY></meanElements><tleParameters><EPHEMERIS_TYPE>0</EPHEMERIS_TYPE><CLASSIFICATION_TYPE>U</CLASSIFICATION_TYPE><NORAD_CAT_ID>65135</NORAD_CAT_ID><ELEMENT_SET_NO>999</ELEMENT_SET_NO><REV_AT_EPOCH>2340</REV_AT_EPOCH><BSTAR>.85891E-2</BSTAR><MEAN_MOTION_DOT>.66229E-3</MEAN_MOTION_DOT><MEAN_MOTION_DDOT>0</MEAN_MOTION_DDOT></tleParameters></data></segment></body></omm>
<omm id="CCSDS_OMM_VERS" version="2.0">
<header><CREATION_DATE/><ORIGINATOR/></header><body><segment><metadata><OBJECT_NAME>KUIPER-00097</OBJECT_NAME><OBJECT_ID>2025-171E</OBJECT_ID><CENTER_NAME>EARTH</CENTER_NAME><REF_FRAME>TEME</REF_FRAME><TIME_SYSTEM>UTC</TIME_SYSTEM><MEAN_ELEMENT_THEORY>SGP4</MEAN_ELEMENT_THEORY></metadata><data><meanElements><EPOCH>2026-01-04T12:30:59.666688</EPOCH><MEAN_MOTION>14.79866644</MEAN_MOTION><ECCENTRICITY>.00073971</ECCENTRICITY><INCLINATION>51.9032</INCLINATION><RA_OF_ASC_NODE>84.4569</RA_OF_ASC_NODE><ARG_OF_PERICENTER>307.6523</ARG_OF_PERICENTER><MEAN_ANOMALY>52.3768</MEAN_ANOMALY></meanElements><tleParameters><EPHEMERIS_TYPE>0</EPHEMERIS_TYPE><CLASSIFICATION_TYPE>U</CLASSIFICATION_TYPE><NORAD_CAT_ID>65136</NORAD_CAT_ID><ELEMENT_SET_NO>999</ELEMENT_SET_NO><REV_AT_EPOCH>2334</REV_AT_EPOCH><BSTAR>.76399666E-2</BSTAR><MEAN_MOTION_DOT>.58458E-3</MEAN_MOTION_DOT><MEAN_MOTION_DDOT>0</MEAN_MOTION_DDOT></tleParameters></data></segment></body></omm>
<omm id="CCSDS_OMM_VERS" version="2.0">
<header><CREATION_DATE/><ORIGINATOR/></header><body><segment><metadata><OBJECT_NAME>KUIPER-00098</OBJECT_NAME><OBJECT_ID>2025-171F</OBJECT_ID><CENTER_NAME>EARTH</CENTER_NAME><REF_FRAME>TEME</REF_FRAME><TIME_SYSTEM>UTC</TIME_SYSTEM><MEAN_ELEMENT_THEORY>SGP4</MEAN_ELEMENT_THEORY></metadata><data><meanElements><EPOCH>2026-01-04T12:26:38.307552</EPOCH><MEAN_MOTION>14.79913210</MEAN_MOTION><ECCENTRICITY>.00064843</ECCENTRICITY><INCLINATION>51.9013</INCLINATION><RA_OF_ASC_NODE>86.8514</RA_OF_ASC_NODE><ARG_OF_PERICENTER>286.7519</ARG_OF_PERICENTER><MEAN_ANOMALY>73.2732</MEAN_ANOMALY></meanElements><tleParameters><EPHEMERIS_TYPE>0</EPHEMERIS_TYPE><CLASSIFICATION_TYPE>U</CLASSIFICATION_TYPE><NORAD_CAT_ID>65137</NORAD_CAT_ID><ELEMENT_SET_NO>999</ELEMENT_SET_NO><REV_AT_EPOCH>2266</REV_AT_EPOCH><BSTAR>.30606182E-3</BSTAR><MEAN_MOTION_DOT>.2111E-4</MEAN_MOTION_DOT><MEAN_MOTION_DDOT>0</MEAN_MOTION_DDOT></tleParameters></data></segment></body></omm>
<omm id="CCSDS_OMM_VERS" version="2.0">
<header><CREATION_DATE/><ORIGINATOR/></header><body><segment><metadata><OBJECT_NAME>KUIPER-00099</OBJECT_NAME><OBJECT_ID>2025-171G</OBJECT_ID><CENTER_NAME>EARTH</CENTER_NAME><REF_FRAME>TEME</REF_FRAME><TIME_SYSTEM>UTC</TIME_SYSTEM><MEAN_ELEMENT_THEORY>SGP4</MEAN_ELEMENT_THEORY></metadata><data><meanElements><EPOCH>2026-01-04T16:45:16.264224</EPOCH><MEAN_MOTION>14.79959287</MEAN_MOTION><ECCENTRICITY>.0000703</ECCENTRICITY><INCLINATION>51.9039</INCLINATION><RA_OF_ASC_NODE>76.0257</RA_OF_ASC_NODE><ARG_OF_PERICENTER>65.5942</ARG_OF_PERICENTER><MEAN_ANOMALY>294.5094</MEAN_ANOMALY></meanElements><tleParameters><EPHEMERIS_TYPE>0</EPHEMERIS_TYPE><CLASSIFICATION_TYPE>U</CLASSIFICATION_TYPE><NORAD_CAT_ID>65138</NORAD_CAT_ID><ELEMENT_SET_NO>999</ELEMENT_SET_NO><REV_AT_EPOCH>2348</REV_AT_EPOCH><BSTAR>.6134E-3</BSTAR><MEAN_MOTION_DOT>.4461E-4</MEAN_MOTION_DOT><MEAN_MOTION_DDOT>0</MEAN_MOTION_DDOT></tleParameters></data></segment></body></omm>
<omm id="CCSDS_OMM_VERS" version="2.0">
<header><CREATION_DATE/><ORIGINATOR/></header><body><segment><metadata><OBJECT_NAME>KUIPER-00100</OBJECT_NAME><OBJECT_ID>2025-171H</OBJECT_ID><CENTER_NAME>EARTH</CENTER_NAME><REF_FRAME>TEME</REF_FRAME><TIME_SYSTEM>UTC</TIME_SYSTEM><MEAN_ELEMENT_THEORY>SGP4</MEAN_ELEMENT_THEORY></metadata><data><meanElements><EPOCH>2026-01-04T20:00:01.999872</EPOCH><MEAN_MOTION>14.77603996</MEAN_MOTION><ECCENTRICITY>.0000463</ECCENTRICITY><INCLINATION>51.9011</INCLINATION><RA_OF_ASC_NODE>72.8722</RA_OF_ASC_NODE><ARG_OF_PERICENTER>73.7314</ARG_OF_PERICENTER><MEAN_ANOMALY>116.4014</MEAN_ANOMALY></meanElements><tleParameters><EPHEMERIS_TYPE>0</EPHEMERIS_TYPE><CLASSIFICATION_TYPE>U</CLASSIFICATION_TYPE><NORAD_CAT_ID>65139</NORAD_CAT_ID><ELEMENT_SET_NO>999</ELEMENT_SET_NO><REV_AT_EPOCH>556</REV_AT_EPOCH><BSTAR>.7026E-3</BSTAR><MEAN_MOTION_DOT>.4856E-4</MEAN_MOTION_DOT><MEAN_MOTION_DDOT>0</MEAN_MOTION_DDOT></tleParameters></data></segment></body></omm>
<omm id="CCSDS_OMM_VERS" version="2.0">
<header><CREATION_DATE/><ORIGINATOR/></header><body><segment><metadata><OBJECT_NAME>KUIPER-00102</OBJECT_NAME><OBJECT_ID>2025-171J</OBJECT_ID><CENTER_NAME>EARTH</CENTER_NAME><REF_FRAME>TEME</REF_FRAME><TIME_SYSTEM>UTC</TIME_SYSTEM><MEAN_ELEMENT_THEORY>SGP4</MEAN_ELEMENT_THEORY></metadata><data><meanElements><EPOCH>2026-01-04T09:27:43.126560</EPOCH><MEAN_MOTION>14.79976860</MEAN_MOTION><ECCENTRICITY>.00005649</ECCENTRICITY><INCLINATION>51.8988</INCLINATION><RA_OF_ASC_NODE>77.4010</RA_OF_ASC_NODE><ARG_OF_PERICENTER>77.2985</ARG_OF_PERICENTER><MEAN_ANOMALY>282.8041</MEAN_ANOMALY></meanElements><tleParameters><EPHEMERIS_TYPE>0</EPHEMERIS_TYPE><CLASSIFICATION_TYPE>U</CLASSIFICATION_TYPE><NORAD_CAT_ID>65140</NORAD_CAT_ID><ELEMENT_SET_NO>999</ELEMENT_SET_NO><REV_AT_EPOCH>2343</REV_AT_EPOCH><BSTAR>.8819133E-3</BSTAR><MEAN_MOTION_DOT>.6515E-4</MEAN_MOTION_DOT><MEAN_MOTION_DDOT>0</MEAN_MOTION_DDOT></tleParameters></data></segment></body></omm>
<omm id="CCSDS_OMM_VERS" version="2.0">
<header><CREATION_DATE/><ORIGINATOR/></header><body><segment><metadata><OBJECT_NAME>KUIPER-00103</OBJECT_NAME><OBJECT_ID>2025-171K</OBJECT_ID><CENTER_NAME>EARTH</CENTER_NAME><REF_FRAME>TEME</REF_FRAME><TIME_SYSTEM>UTC</TIME_SYSTEM><MEAN_ELEMENT_THEORY>SGP4</MEAN_ELEMENT_THEORY></metadata><data><meanElements><EPOCH>2026-01-04T13:03:42.430176</EPOCH><MEAN_MOTION>14.79905976</MEAN_MOTION><ECCENTRICITY>.0005392</ECCENTRICITY><INCLINATION>51.9001</INCLINATION><RA_OF_ASC_NODE>94.2274</RA_OF_ASC_NODE><ARG_OF_PERICENTER>276.7955</ARG_OF_PERICENTER><MEAN_ANOMALY>83.2393</MEAN_ANOMALY></meanElements><tleParameters><EPHEMERIS_TYPE>0</EPHEMERIS_TYPE><CLASSIFICATION_TYPE>U</CLASSIFICATION_TYPE><NORAD_CAT_ID>65141</NORAD_CAT_ID><ELEMENT_SET_NO>999</ELEMENT_SET_NO><REV_AT_EPOCH>2321</REV_AT_EPOCH><BSTAR>-.75053E-3</BSTAR><MEAN_MOTION_DOT>-.5937E-4</MEAN_MOTION_DOT><MEAN_MOTION_DDOT>0</MEAN_MOTION_DDOT></tleParameters></data></segment></body></omm>

</ndm>
